STARLINK-36515          
1 67430U 26005AC  26039.08225266 -.00178221  00000+0 -31358-2 0  9998
2 67430  43.0000  47.3312 0001739 203.8230 156.2550 15.50271100  4131
STARLINK-36443          
1 67431U 26005AD  26039.08117868  .00000116  00000+0  78013-5 0  9994
2 67431  43.0002  47.3211 0001353 264.5429  95.5277 15.50574736  4141
STARLINK-36460          
1 67432U 26005AE  26039.08083778  .00110620  00000+0  18645-2 0  9991
2 67432  43.0002  47.3190 0001399 305.3668  54.7061 15.50585149  4134
YAOGAN-50 01            
1 67433U 26006A   26039.24086708  .00000374  00000+0  16823-3 0  9998
2 67433 142.0321 312.6352 0000747 262.9303  97.1331 13.83242026  3573
CZ-6A R/B               
1 67434U 26006B   26039.25733215  .00001959  00000+0  23626-3 0  9991
2 67434 142.0437 328.7887 0203619 269.9550  87.7864 14.62312913  3765
HULIANWANG DIGUI-137    
1 67435U 26007A   26038.91520261  .00000011  00000+0  16035-3 0  9994
2 67435  49.9986 194.4813 0002711  17.7923 342.3063 13.74126901  3516
HULIANWANG DIGUI-138    
1 67436U 26007B   26039.21223410  .00000010  00000+0  15995-3 0  9998
2 67436  49.9995 193.3905 0003451 134.2061 225.9115 13.73587962  3552
HULIANWANG DIGUI-139    
1 67437U 26007C   26038.48152908  .00000046  00000+0  19579-3 0  9991
2 67437  50.0000 196.1814 0000482 302.0612  58.0233 13.74488554  3454
HULIANWANG DIGUI-140    
1 67438U 26007D   26038.56078172  .00000037  00000+0  18840-3 0  9991
2 67438  50.0042 195.9376 0000449 100.2709 259.8233 13.73892776  3465
HULIANWANG DIGUI-141    
1 67439U 26007E   26038.54785445  .00000020  00000+0  16774-3 0  9994
2 67439  50.0031 195.8681 0000432 103.6480 256.4460 13.74661753  3462
HULIANWANG DIGUI-142    
1 67440U 26007F   26038.39919996 -.00000130  00000+0  11054-4 0  9999
2 67440  50.0103 196.4425 0001574 349.9268  10.1593 13.75320254  3443
HULIANWANG DIGUI-143    
1 67441U 26007G   26038.61380095  .00000020  00000+0  16749-3 0  9999
2 67441  50.0040 195.5696 0002397 180.3309 179.7582 13.75018638  3474
